CCSDS_OMM_VERS = 2.0
CREATION_DATE  = 
ORIGINATOR     = 

OBJECT_NAME    = STARLINK-36487
OBJECT_ID      = 2026-005N
CENTER_NAME    = EARTH
REF_FRAME      = TEME
TIME_SYSTEM    = UTC
MEAN_ELEMENT_THEORY = SGP/SGP4

EPOCH          = 2026-01-25T06:00:00.999648
MEAN_MOTION    = 15.79261911
ECCENTRICITY   = .00013774
INCLINATION    = 43.0000
RA_OF_ASC_NODE = 129.2925
ARG_OF_PERICENTER = 277.5499
MEAN_ANOMALY   = 102.5441

EPHEMERIS_TYPE = 0
CLASSIFICATION_TYPE = U
NORAD_CAT_ID   = 67416
ELEMENT_SET_NO = 999
REV_AT_EPOCH   = 320
BSTAR          = -.91842731E-2
MEAN_MOTION_DOT = -.150052E-1
MEAN_MOTION_DDOT = 0

CCSDS_OMM_VERS = 2.0
CREATION_DATE  = 
ORIGINATOR     = 

OBJECT_NAME    = STARLINK-36374
OBJECT_ID      = 2026-005P
CENTER_NAME    = EARTH
REF_FRAME      = TEME
TIME_SYSTEM    = UTC
MEAN_ELEMENT_THEORY = SGP/SGP4

EPOCH          = 2026-01-25T06:00:00.999648
MEAN_MOTION    = 15.79228965
ECCENTRICITY   = .00013472
INCLINATION    = 43.0000
RA_OF_ASC_NODE = 129.2873
ARG_OF_PERICENTER = 277.2939
MEAN_ANOMALY   = 104.9019

EPHEMERIS_TYPE = 0
CLASSIFICATION_TYPE = U
NORAD_CAT_ID   = 67417
ELEMENT_SET_NO = 999
REV_AT_EPOCH   = 320
BSTAR          = -.92347595E-2
MEAN_MOTION_DOT = -.150574E-1
MEAN_MOTION_DDOT = 0

CCSDS_OMM_VERS = 2.0
CREATION_DATE  = 
ORIGINATOR     = 

OBJECT_NAME    = STARLINK-36455
OBJECT_ID      = 2026-005Q
CENTER_NAME    = EARTH
REF_FRAME      = TEME
TIME_SYSTEM    = UTC
MEAN_ELEMENT_THEORY = SGP/SGP4

EPOCH          = 2026-01-25T06:00:00.999648
MEAN_MOTION    = 15.79182814
ECCENTRICITY   = .00013109
INCLINATION    = 43.0001
RA_OF_ASC_NODE = 129.2816
ARG_OF_PERICENTER = 273.9337
MEAN_ANOMALY   = 110.4655

EPHEMERIS_TYPE = 0
CLASSIFICATION_TYPE = U
NORAD_CAT_ID   = 67418
ELEMENT_SET_NO = 999
REV_AT_EPOCH   = 320
BSTAR          = -.93515548E-2
MEAN_MOTION_DOT = -.151959E-1
MEAN_MOTION_DDOT = 0

CCSDS_OMM_VERS = 2.0
CREATION_DATE  = 
ORIGINATOR     = 

OBJECT_NAME    = STARLINK-36424
OBJECT_ID      = 2026-005R
CENTER_NAME    = EARTH
REF_FRAME      = TEME
TIME_SYSTEM    = UTC
MEAN_ELEMENT_THEORY = SGP/SGP4

EPOCH          = 2026-01-25T06:00:00.999648
MEAN_MOTION    = 15.79128061
ECCENTRICITY   = .00015258
INCLINATION    = 43.0000
RA_OF_ASC_NODE = 129.2763
ARG_OF_PERICENTER = 275.1572
MEAN_ANOMALY   = 111.4477

EPHEMERIS_TYPE = 0
CLASSIFICATION_TYPE = U
NORAD_CAT_ID   = 67419
ELEMENT_SET_NO = 999
REV_AT_EPOCH   = 320
BSTAR          = -.9385678E-2
MEAN_MOTION_DOT = -.1521243E-1
MEAN_MOTION_DDOT = 0

CCSDS_OMM_VERS = 2.0
CREATION_DATE  = 
ORIGINATOR     = 

OBJECT_NAME    = STARLINK-35564
OBJECT_ID      = 2026-005S
CENTER_NAME    = EARTH
REF_FRAME      = TEME
TIME_SYSTEM    = UTC
MEAN_ELEMENT_THEORY = SGP/SGP4

EPOCH          = 2026-01-25T06:00:00.999648
MEAN_MOTION    = 15.79107143
ECCENTRICITY   = .00013632
INCLINATION    = 43.0001
RA_OF_ASC_NODE = 129.2713
ARG_OF_PERICENTER = 275.2366
MEAN_ANOMALY   = 113.4337

EPHEMERIS_TYPE = 0
CLASSIFICATION_TYPE = U
NORAD_CAT_ID   = 67420
ELEMENT_SET_NO = 999
REV_AT_EPOCH   = 309
BSTAR          = -.94980642E-2
MEAN_MOTION_DOT = -.1535786E-1
MEAN_MOTION_DDOT = 0

CCSDS_OMM_VERS = 2.0
CREATION_DATE  = 
ORIGINATOR     = 

OBJECT_NAME    = STARLINK-36431
OBJECT_ID      = 2026-005T
CENTER_NAME    = EARTH
REF_FRAME      = TEME
TIME_SYSTEM    = UTC
MEAN_ELEMENT_THEORY = SGP/SGP4

EPOCH          = 2026-01-25T06:00:00.999648
MEAN_MOTION    = 15.79077559
ECCENTRICITY   = .00016515
INCLINATION    = 43.0003
RA_OF_ASC_NODE = 129.2660
ARG_OF_PERICENTER = 281.5938
MEAN_ANOMALY   = 109.1535

EPHEMERIS_TYPE = 0
CLASSIFICATION_TYPE = U
NORAD_CAT_ID   = 67421
ELEMENT_SET_NO = 999
REV_AT_EPOCH   = 299
BSTAR          = -.95124822E-2
MEAN_MOTION_DOT = -.1536209E-1
MEAN_MOTION_DDOT = 0

CCSDS_OMM_VERS = 2.0
CREATION_DATE  = 
ORIGINATOR     = 

OBJECT_NAME    = STARLINK-36418
OBJECT_ID      = 2026-005U
CENTER_NAME    = EARTH
REF_FRAME      = TEME
TIME_SYSTEM    = UTC
MEAN_ELEMENT_THEORY = SGP/SGP4

EPOCH          = 2026-01-25T06:00:00.999648
MEAN_MOTION    = 15.79074672
ECCENTRICITY   = .00014304
INCLINATION    = 43.0000
RA_OF_ASC_NODE = 129.2613
ARG_OF_PERICENTER = 278.1098
MEAN_ANOMALY   = 114.5815

EPHEMERIS_TYPE = 0
CLASSIFICATION_TYPE = U
NORAD_CAT_ID   = 67422
ELEMENT_SET_NO = 999
REV_AT_EPOCH   = 315
BSTAR          = -.95288458E-2
MEAN_MOTION_DOT = -.1538181E-1
MEAN_MOTION_DDOT = 0

CCSDS_OMM_VERS = 2.0
CREATION_DATE  = 
ORIGINATOR     = 

OBJECT_NAME    = STARLINK-36465
OBJECT_ID      = 2026-005V
CENTER_NAME    = EARTH
REF_FRAME      = TEME
TIME_SYSTEM    = UTC
MEAN_ELEMENT_THEORY = SGP/SGP4

EPOCH          = 2026-01-25T06:00:00.999648
MEAN_MOTION    = 15.79026272
ECCENTRICITY   = .00016431
INCLINATION    = 43.0004
RA_OF_ASC_NODE = 129.2558
ARG_OF_PERICENTER = 275.9639
MEAN_ANOMALY   = 118.9159

EPHEMERIS_TYPE = 0
CLASSIFICATION_TYPE = U
NORAD_CAT_ID   = 67423
ELEMENT_SET_NO = 999
REV_AT_EPOCH   = 294
BSTAR          = -.96624752E-2
MEAN_MOTION_DOT = -.155417E-1
MEAN_MOTION_DDOT = 0

CCSDS_OMM_VERS = 2.0
CREATION_DATE  = 
ORIGINATOR     = 

OBJECT_NAME    = STARLINK-36362
OBJECT_ID      = 2026-005W
CENTER_NAME    = EARTH
REF_FRAME      = TEME
TIME_SYSTEM    = UTC
MEAN_ELEMENT_THEORY = SGP/SGP4

EPOCH          = 2026-01-25T06:00:00.999648
MEAN_MOTION    = 15.78983275
ECCENTRICITY   = .00015279
INCLINATION    = 43.0003
RA_OF_ASC_NODE = 129.2504
ARG_OF_PERICENTER = 279.7905
MEAN_ANOMALY   = 117.2204

EPHEMERIS_TYPE = 0
CLASSIFICATION_TYPE = U
NORAD_CAT_ID   = 67424
ELEMENT_SET_NO = 999
REV_AT_EPOCH   = 320
BSTAR          = -.97311287E-2
MEAN_MOTION_DOT = -.1561029E-1
MEAN_MOTION_DDOT = 0

CCSDS_OMM_VERS = 2.0
CREATION_DATE  = 
ORIGINATOR     = 

OBJECT_NAME    = STARLINK-36447
OBJECT_ID      = 2026-005X
CENTER_NAME    = EARTH
REF_FRAME      = TEME
TIME_SYSTEM    = UTC
MEAN_ELEMENT_THEORY = SGP/SGP4

EPOCH          = 2026-01-25T06:00:00.999648
MEAN_MOTION    = 15.78934522
ECCENTRICITY   = .00015885
INCLINATION    = 43.0002
RA_OF_ASC_NODE = 129.2449
ARG_OF_PERICENTER = 268.6837
MEAN_ANOMALY   = 130.5003

EPHEMERIS_TYPE = 0
CLASSIFICATION_TYPE = U
NORAD_CAT_ID   = 67425
ELEMENT_SET_NO = 999
REV_AT_EPOCH   = 320
BSTAR          = -.98106355E-2
MEAN_MOTION_DOT = -.1569134E-1
MEAN_MOTION_DDOT = 0

CCSDS_OMM_VERS = 2.0
CREATION_DATE  = 
ORIGINATOR     = 

OBJECT_NAME    = STARLINK-36146
OBJECT_ID      = 2026-005Y
CENTER_NAME    = EARTH
REF_FRAME      = TEME
TIME_SYSTEM    = UTC
MEAN_ELEMENT_THEORY = SGP/SGP4

EPOCH          = 2026-01-25T06:00:00.999648
MEAN_MOTION    = 15.78903520
ECCENTRICITY   = .00015634
INCLINATION    = 43.0002
RA_OF_ASC_NODE = 129.2392
ARG_OF_PERICENTER = 272.8963
MEAN_ANOMALY   = 128.3913

EPHEMERIS_TYPE = 0
CLASSIFICATION_TYPE = U
NORAD_CAT_ID   = 67426
ELEMENT_SET_NO = 999
REV_AT_EPOCH   = 315
BSTAR          = -.99484639E-2
MEAN_MOTION_DOT = -.1586343E-1
MEAN_MOTION_DDOT = 0

CCSDS_OMM_VERS = 2.0
CREATION_DATE  = 
ORIGINATOR     = 

OBJECT_NAME    = STARLINK-36459
OBJECT_ID      = 2026-005Z
CENTER_NAME    = EARTH
REF_FRAME      = TEME
TIME_SYSTEM    = UTC
MEAN_ELEMENT_THEORY = SGP/SGP4

EPOCH          = 2026-01-25T06:00:00.999648
MEAN_MOTION    = 15.78862479
ECCENTRICITY   = .00013874
INCLINATION    = 42.9999
RA_OF_ASC_NODE = 129.2337
ARG_OF_PERICENTER = 279.6122
MEAN_ANOMALY   = 123.7598

EPHEMERIS_TYPE = 0
CLASSIFICATION_TYPE = U
NORAD_CAT_ID   = 67427
ELEMENT_SET_NO = 999
REV_AT_EPOCH   = 312
BSTAR          = -.99405506E-2
MEAN_MOTION_DOT = -.1582508E-1
MEAN_MOTION_DDOT = 0

