STARLINK-36487          
1 67416U 26005N   26025.25001157 -.01500520  00000+0 -91843-2 0  9994
2 67416  43.0000 129.2925 0001377 277.5499 102.5441 15.79261911  3208
STARLINK-36374          
1 67417U 26005P   26025.25001157 -.01505740  00000+0 -92348-2 0  9995
2 67417  43.0000 129.2873 0001347 277.2939 104.9019 15.79228965  3203
STARLINK-36455          
1 67418U 26005Q   26025.25001157 -.01519590  00000+0 -93516-2 0  9992
2 67418  43.0001 129.2816 0001310 273.9337 110.4655 15.79182814  3207
STARLINK-36424          
1 67419U 26005R   26025.25001157 -.01521243  00000+0 -93857-2 0  9999
2 67419  43.0000 129.2763 0001525 275.1572 111.4477 15.79128061  3208
STARLINK-35564          
1 67420U 26005S   26025.25001157 -.01535786  00000+0 -94981-2 0  9997
2 67420  43.0001 129.2713 0001363 275.2366 113.4337 15.79107143  3090
STARLINK-36431          
1 67421U 26005T   26025.25001157 -.01536209  00000+0 -95125-2 0  9990
2 67421  43.0003 129.2660 0001651 281.5938 109.1535 15.79077559  2996
STARLINK-36418          
1 67422U 26005U   26025.25001157 -.01538181  00000+0 -95288-2 0  9992
2 67422  43.0000 129.2613 0001430 278.1098 114.5815 15.79074672  3159
STARLINK-36465          
1 67423U 26005V   26025.25001157 -.01554170  00000+0 -96625-2 0  9995
2 67423  43.0004 129.2558 0001643 275.9639 118.9159 15.79026272  2942
STARLINK-36362          
1 67424U 26005W   26025.25001157 -.01561029  00000+0 -97311-2 0  9990
2 67424  43.0003 129.2504 0001527 279.7905 117.2204 15.78983275  3209
STARLINK-36447          
1 67425U 26005X   26025.25001157 -.01569134  00000+0 -98106-2 0  9999
2 67425  43.0002 129.2449 0001588 268.6837 130.5003 15.78934522  3201
STARLINK-36146          
1 67426U 26005Y   26025.25001157 -.01586343  00000+0 -99485-2 0  9992
2 67426  43.0002 129.2392 0001563 272.8963 128.3913 15.78903520  3152
STARLINK-36459          
1 67427U 26005Z   26025.25001157 -.01582508  00000+0 -99406-2 0  9995
2 67427  42.9999 129.2337 0001387 279.6122 123.7598 15.78862479  3123
